{
  "type": "FeatureCollection",
  "features": [
    {
      "type": "Feature",
      "properties": {
        "norad_id": 34861,
        "name": "COSMOS 2251 DEB",
        "group": "cosmos-2251-debris",
        "lat": 19.11026348724573,
        "lon": -116.47884007108158,
        "alt_km": 561.0253832840335,
        "timestamp": "2025-12-03T17:47:51.113651+00:00",
        "meta_object_name": "COSMOS 2251 DEB",
        "meta_object_id": "1993-036ACF",
        "meta_epoch": "2025-12-03T06:01:48.787104",
        "meta_mean_motion": 15.01590814,
        "meta_eccentricity": 0.0005956,
        "meta_inclination": 74.0186,
        "meta_ra_of_asc_node": 70.2195,
        "meta_arg_of_pericenter": 81.3794,
        "meta_mean_anomaly": 309.1741,
        "meta_ephemeris_type": 0,
        "meta_classification_type": "U",
        "meta_norad_cat_id": 34861,
        "meta_element_set_no": 999,
        "meta_rev_at_epoch": 87950,
        "meta_bstar": 0.0032722,
        "meta_mean_motion_dot": 0.00042671,
        "meta_mean_motion_ddot": 0,
        "tle_line1": "1 34861U 93036ACF 25337.25125911  .00042671  00000+0  32722-2 0  9996",
        "tle_line2": "2 34861  74.0186  70.2195 0005956  81.3794 309.1741 15.01590814879509"
      },
      "geometry": {
        "type": "Point",
        "coordinates": [
          -116.47884007108158,
          19.11026348724573
        ]
      }
    },
    {
      "type": "Feature",
      "properties": {
        "norad_id": 34874,
        "name": "COSMOS 2251 DEB",
        "group": "cosmos-2251-debris",
        "lat": 72.60829893827284,
        "lon": 156.31154202131745,
        "alt_km": 733.5412598549619,
        "timestamp": "2025-12-03T17:47:51.113662+00:00",
        "meta_object_name": "COSMOS 2251 DEB",
        "meta_object_id": "1993-036ACM",
        "meta_epoch": "2025-12-03T07:32:24.014112",
        "meta_mean_motion": 14.3622583,
        "meta_eccentricity": 0.0051549,
        "meta_inclination": 74.039,
        "meta_ra_of_asc_node": 91.0729,
        "meta_arg_of_pericenter": 119.3072,
        "meta_mean_anomaly": 275.1371,
        "meta_ephemeris_type": 0,
        "meta_classification_type": "U",
        "meta_norad_cat_id": 34874,
        "meta_element_set_no": 999,
        "meta_rev_at_epoch": 86909,
        "meta_bstar": 0.0014888,
        "meta_mean_motion_dot": 4.389e-05,
        "meta_mean_motion_ddot": 0,
        "tle_line1": "1 34874U 93036ACM 25337.31416683  .00004389  00000+0  14888-2 0  9993",
        "tle_line2": "2 34874  74.0390  91.0729 0051549 119.3072 275.1371 14.36225830869098"
      },
      "geometry": {
        "type": "Point",
        "coordinates": [
          156.31154202131745,
          72.60829893827284
        ]
      }
    },
    {
      "type": "Feature",
      "properties": {
        "norad_id": 34875,
        "name": "COSMOS 2251 DEB",
        "group": "cosmos-2251-debris",
        "lat": 73.8528447436691,
        "lon": -103.72978679168293,
        "alt_km": 731.570165689619,
        "timestamp": "2025-12-03T17:47:51.113672+00:00",
        "meta_object_name": "COSMOS 2251 DEB",
        "meta_object_id": "1993-036ACN",
        "meta_epoch": "2025-12-02T23:29:38.183424",
        "meta_mean_motion": 14.48872152,
        "meta_eccentricity": 0.00159602,
        "meta_inclination": 74.0432,
        "meta_ra_of_asc_node": 176.5012,
        "meta_arg_of_pericenter": 300.7833,
        "meta_mean_anomaly": 130.3671,
        "meta_ephemeris_type": 0,
        "meta_classification_type": "U",
        "meta_norad_cat_id": 34875,
        "meta_element_set_no": 999,
        "meta_rev_at_epoch": 87614,
        "meta_bstar": 0.00050895794,
        "meta_mean_motion_dot": 1.901e-05,
        "meta_mean_motion_ddot": 0,
        "tle_line1": "1 34875U 93036ACN 25336.97891416  .00001901  00000+0  50896-3 0  9993",
        "tle_line2": "2 34875  74.0432 176.5012 0015960 300.7833 130.3671 14.48872152876145"
      },
      "geometry": {
        "type": "Point",
        "coordinates": [
          -103.72978679168293,
          73.8528447436691
        ]
      }
    },
    {
      "type": "Feature",
      "properties": {
        "norad_id": 34878,
        "name": "COSMOS 2251 DEB",
        "group": "cosmos-2251-debris",
        "lat": 1.4488840078432117,
        "lon": 62.01370005278625,
        "alt_km": 860.297789526302,
        "timestamp": "2025-12-03T17:47:51.113683+00:00",
        "meta_object_name": "COSMOS 2251 DEB",
        "meta_object_id": "1993-036ACR",
        "meta_epoch": "2025-12-01T14:17:05.154720",
        "meta_mean_motion": 13.44171436,
        "meta_eccentricity": 0.04352412,
        "meta_inclination": 73.9642,
        "meta_ra_of_asc_node": 65.0008,
        "meta_arg_of_pericenter": 50.7211,
        "meta_mean_anomaly": 11.8748,
        "meta_ephemeris_type": 0,
        "meta_classification_type": "U",
        "meta_norad_cat_id": 34878,
        "meta_element_set_no": 999,
        "meta_rev_at_epoch": 81123,
        "meta_bstar": 0.00042153975,
        "meta_mean_motion_dot": 4.13e-06,
        "meta_mean_motion_ddot": 0,
        "tle_line1": "1 34878U 93036ACR 25335.59519855  .00000413  00000+0  42154-3 0  9992",
        "tle_line2": "2 34878  73.9642  65.0008 0435241  50.7211  11.8748 13.44171436811235"
      },
      "geometry": {
        "type": "Point",
        "coordinates": [
          62.01370005278625,
          1.4488840078432117
        ]
      }
    },
    {
      "type": "Feature",
      "properties": {
        "norad_id": 34882,
        "name": "COSMOS 2251 DEB",
        "group": "cosmos-2251-debris",
        "lat": -19.51382727568556,
        "lon": -123.02444273660403,
        "alt_km": 643.4991301048003,
        "timestamp": "2025-12-03T17:47:51.113694+00:00",
        "meta_object_name": "COSMOS 2251 DEB",
        "meta_object_id": "1993-036ACV",
        "meta_epoch": "2025-12-03T11:19:04.630368",
        "meta_mean_motion": 14.61565557,
        "meta_eccentricity": 0.0082423,
        "meta_inclination": 74.0468,
        "meta_ra_of_asc_node": 243.3098,
        "meta_arg_of_pericenter": 12.5896,
        "meta_mean_anomaly": 347.7302,
        "meta_ephemeris_type": 0,
        "meta_classification_type": "U",
        "meta_norad_cat_id": 34882,
        "meta_element_set_no": 999,
        "meta_rev_at_epoch": 88389,
        "meta_bstar": 0.00032362,
        "meta_mean_motion_dot": 1.655e-05,
        "meta_mean_motion_ddot": 0,
        "tle_line1": "1 34882U 93036ACV 25337.47158137  .00001655  00000+0  32362-3 0  9997",
        "tle_line2": "2 34882  74.0468 243.3098 0082423  12.5896 347.7302 14.61565557883892"
      },
      "geometry": {
        "type": "Point",
        "coordinates": [
          -123.02444273660403,
          -19.51382727568556
        ]
      }
    },
    {
      "type": "Feature",
      "properties": {
        "norad_id": 34883,
        "name": "COSMOS 2251 DEB",
        "group": "cosmos-2251-debris",
        "lat": 3.4884709026575242,
        "lon": 80.47290576011284,
        "alt_km": 733.1276266683135,
        "timestamp": "2025-12-03T17:47:51.113704+00:00",
        "meta_object_name": "COSMOS 2251 DEB",
        "meta_object_id": "1993-036ACW",
        "meta_epoch": "2025-12-03T06:11:49.903008",
        "meta_mean_motion": 14.50906978,
        "meta_eccentricity": 0.009512,
        "meta_inclination": 74.1992,
        "meta_ra_of_asc_node": 80.3835,
        "meta_arg_of_pericenter": 267.1357,
        "meta_mean_anomaly": 91.8916,
        "meta_ephemeris_type": 0,
        "meta_classification_type": "U",
        "meta_norad_cat_id": 34883,
        "meta_element_set_no": 999,
        "meta_rev_at_epoch": 86302,
        "meta_bstar": 0.0065943,
        "meta_mean_motion_dot": 0.00027681,
        "meta_mean_motion_ddot": 0,
        "tle_line1": "1 34883U 93036ACW 25337.25821647  .00027681  00000+0  65943-2 0  9994",
        "tle_line2": "2 34883  74.1992  80.3835 0095120 267.1357  91.8916 14.50906978863027"
      },
      "geometry": {
        "type": "Point",
        "coordinates": [
          80.47290576011284,
          3.4884709026575242
        ]
      }
    },
    {
      "type": "Feature",
      "properties": {
        "norad_id": 34884,
        "name": "COSMOS 2251 DEB",
        "group": "cosmos-2251-debris",
        "lat": 46.45518761366647,
        "lon": -122.78988559334032,
        "alt_km": 593.6956340241122,
        "timestamp": "2025-12-03T17:47:51.113715+00:00",
        "meta_object_name": "COSMOS 2251 DEB",
        "meta_object_id": "1993-036ACX",
        "meta_epoch": "2025-12-03T07:47:10.508352",
        "meta_mean_motion": 14.89278291,
        "meta_eccentricity": 0.0002889,
        "meta_inclination": 74.0181,
        "meta_ra_of_asc_node": 75.5944,
        "meta_arg_of_pericenter": 139.1324,
        "meta_mean_anomaly": 276.3447,
        "meta_ephemeris_type": 0,
        "meta_classification_type": "U",
        "meta_norad_cat_id": 34884,
        "meta_element_set_no": 999,
        "meta_rev_at_epoch": 87665,
        "meta_bstar": 0.0036657,
        "meta_mean_motion_dot": 0.00034875,
        "meta_mean_motion_ddot": 0,
        "tle_line1": "1 34884U 93036ACX 25337.32442718  .00034875  00000+0  36657-2 0  9994",
        "tle_line2": "2 34884  74.0181  75.5944 0002889 139.1324 276.3447 14.89278291876650"
      },
      "geometry": {
        "type": "Point",
        "coordinates": [
          -122.78988559334032,
          46.45518761366647
        ]
      }
    }
  ]
}